{"type": "FeatureCollection", "features": [ {"type": "Feature", "properties": {"norad_id": 66757, "name": "TRANSPORTER-15 CV", "group": "last-30-days", "lat": -29.015009783820073, "lon": 72.3920802449101, "alt_km": 518.7802036363073, "timestamp": "2025-12-22T14:45:56.097268+00:00", "meta": {"OBJECT_NAME": "TRANSPORTER-15 CV", "OBJECT_ID": "2025-276CV", "EPOCH": "2025-12-22T05:24:09.114336", "MEAN_MOTION": 15.18057073, "ECCENTRICITY": 0.00016649, "INCLINATION": 97.4428, "RA_OF_ASC_NODE": 67.8503, "ARG_OF_PERICENTER": 162.1309, "MEAN_ANOMALY": 197.9984, "EPHEMERIS_TYPE": 0, "CLASSIFICATION_TYPE": "U", "NORAD_CAT_ID": 66757, "ELEMENT_SET_NO": 999, "REV_AT_EPOCH": 356, "BSTAR": 0.00059878481, "MEAN_MOTION_DOT": 0.00012139, "MEAN_MOTION_DDOT": 0}, "tle": {"line1": "1 66757U 25276CV  25356.22510549  .00012139  00000+0  59878-3 0  9997", "line2": "2 66757  97.4428  67.8503 0001664 162.1309 197.9984 15.18057073  3563"}}, "geometry": {"type": "Point", "coordinates": [72.3920802449101, -29.015009783820073]}}, {"type": "Feature", "properties": {"norad_id": 66758, "name": "TRANSPORTER-15 CW", "group": "last-30-days", "lat": -27.545904170490363, "lon": 72.1329597416394, "alt_km": 518.3719829816882, "timestamp": "2025-12-22T14:45:56.097278+00:00", "meta": {"OBJECT_NAME": "TRANSPORTER-15 CW", "OBJECT_ID": "2025-276CW", "EPOCH": "2025-12-22T05:23:45.745728", "MEAN_MOTION": 15.18066453, "ECCENTRICITY": 0.00012562, "INCLINATION": 97.4397, "RA_OF_ASC_NODE": 67.841, "ARG_OF_PERICENTER": 142.4823, "MEAN_ANOMALY": 217.6499, "EPHEMERIS_TYPE": 0, "CLASSIFICATION_TYPE": "U", "NORAD_CAT_ID": 66758, "ELEMENT_SET_NO": 999, "REV_AT_EPOCH": 356, "BSTAR": 0.00058015913, "MEAN_MOTION_DOT": 0.00011761, "MEAN_MOTION_DDOT": 0}, "tle": {"line1": "1 66758U 25276CW  25356.22483502  .00011761  00000+0  58016-3 0  9999", "line2": "2 66758  97.4397  67.8410 0001256 142.4823 217.6499 15.18066453  3568"}}, "geometry": {"type": "Point", "coordinates": [72.1329597416394, -27.545904170490363]}}, {"type": "Feature", "properties": {"norad_id": 66759, "name": "TRANSPORTER-15 CX", "group": "last-30-days", "lat": -18.80132253748262, "lon": 70.7730119125344, "alt_km": 517.5472435721513, "timestamp": "2025-12-22T14:45:56.097290+00:00", "meta": {"OBJECT_NAME": "TRANSPORTER-15 CX", "OBJECT_ID": "2025-276CX", "EPOCH": "2025-12-22T05:21:28.901088", "MEAN_MOTION": 15.18200301, "ECCENTRICITY": 0.00017318, "INCLINATION": 97.4388, "RA_OF_ASC_NODE": 67.8381, "ARG_OF_PERICENTER": 143.9999, "MEAN_ANOMALY": 216.1352, "EPHEMERIS_TYPE": 0, "CLASSIFICATION_TYPE": "U", "NORAD_CAT_ID": 66759, "ELEMENT_SET_NO": 999, "REV_AT_EPOCH": 356, "BSTAR": 0.00065983865, "MEAN_MOTION_DOT": 0.00013441, "MEAN_MOTION_DDOT": 0}, "tle": {"line1": "1 66759U 25276CX  25356.22325117  .00013441  00000+0  65984-3 0  9996", "line2": "2 66759  97.4388  67.8381 0001731 143.9999 216.1352 15.18200301  3568"}}, "geometry": {"type": "Point", "coordinates": [70.7730119125344, -18.80132253748262]}}, {"type": "Feature", "properties": {"norad_id": 66760, "name": "TRANSPORTER-15 CY", "group": "last-30-days", "lat": -16.731120988230003, "lon": 70.48300260726147, "alt_km": 516.9226691633239, "timestamp": "2025-12-22T14:45:56.097300+00:00", "meta": {"OBJECT_NAME": "TRANSPORTER-15 CY", "OBJECT_ID": "2025-276CY", "EPOCH": "2025-12-22T02:11:06.154944", "MEAN_MOTION": 15.1818231, "ECCENTRICITY": 0.00015797, "INCLINATION": 97.4398, "RA_OF_ASC_NODE": 67.7163, "ARG_OF_PERICENTER": 111.6232, "MEAN_ANOMALY": 248.517, "EPHEMERIS_TYPE": 0, "CLASSIFICATION_TYPE": "U", "NORAD_CAT_ID": 66760, "ELEMENT_SET_NO": 999, "REV_AT_EPOCH": 354, "BSTAR": 0.00057429641, "MEAN_MOTION_DOT": 0.00011681, "MEAN_MOTION_DDOT": 0}, "tle": {"line1": "1 66760U 25276CY  25356.09104346  .00011681  00000+0  57430-3 0  9993", "line2": "2 66760  97.4398  67.7163 0001579 111.6232 248.5170 15.18182310  3544"}}, "geometry": {"type": "Point", "coordinates": [70.48300260726147, -16.731120988230003]}}, {"type": "Feature", "properties": {"norad_id": 66761, "name": "TRANSPORTER-15 CZ", "group": "last-30-days", "lat": -3.361545163504379, "lon": 68.67657700887075, "alt_km": 514.6613188236297, "timestamp": "2025-12-22T14:45:56.097332+00:00", "meta": {"OBJECT_NAME": "TRANSPORTER-15 CZ", "OBJECT_ID": "2025-276CZ", "EPOCH": "2025-12-22T03:42:34.422048", "MEAN_MOTION": 15.18452569, "ECCENTRICITY": 0.00015515, "INCLINATION": 97.44, "RA_OF_ASC_NODE": 67.7836, "ARG_OF_PERICENTER": 126.5511, "MEAN_ANOMALY": 233.5866, "EPHEMERIS_TYPE": 0, "CLASSIFICATION_TYPE": "U", "NORAD_CAT_ID": 66761, "ELEMENT_SET_NO": 999, "REV_AT_EPOCH": 355, "BSTAR": 0.00057041524, "MEAN_MOTION_DOT": 0.00011692, "MEAN_MOTION_DDOT": 0}, "tle": {"line1": "1 66761U 25276CZ  25356.15456507  .00011692  00000+0  57042-3 0  9991", "line2": "2 66761  97.4400  67.7836 0001551 126.5511 233.5866 15.18452569  3554"}}, "geometry": {"type": "Point", "coordinates": [68.67657700887075, -3.361545163504379]}}, {"type": "Feature", "properties": {"norad_id": 66762, "name": "HYDROGNSS-1", "group": "last-30-days", "lat": -82.38041991111136, "lon": 145.88795176379963, "alt_km": 520.7057900414402, "timestamp": "2025-12-22T14:45:56.097346+00:00", "meta": {"OBJECT_NAME": "HYDROGNSS-1", "OBJECT_ID": "2025-276DA", "EPOCH": "2025-12-22T05:39:28.861344", "MEAN_MOTION": 15.17293477, "ECCENTRICITY": 9.752e-05, "INCLINATION": 97.4411, "RA_OF_ASC_NODE": 67.831, "ARG_OF_PERICENTER": 268.6235, "MEAN_ANOMALY": 91.4887, "EPHEMERIS_TYPE": 0, "CLASSIFICATION_TYPE": "U", "NORAD_CAT_ID": 66762, "ELEMENT_SET_NO": 999, "REV_AT_EPOCH": 356, "BSTAR": 0.00039718493, "MEAN_MOTION_DOT": 7.85e-05, "MEAN_MOTION_DDOT": 0}, "tle": {"line1": "1 66762U 25276DA  25356.23575071  .00007850  00000+0  39718-3 0  9990", "line2": "2 66762  97.4411  67.8310 0000975 268.6235  91.4887 15.17293477  3560"}}, "geometry": {"type": "Point", "coordinates": [145.88795176379963, -82.38041991111136]}}, {"type": "Feature", "properties": {"norad_id": 66763, "name": "HYDROGNSS-2", "group": "last-30-days", "lat": -75.4744556976176, "lon": 98.50949075344253, "alt_km": 520.2180520691627, "timestamp": "2025-12-22T14:45:56.097356+00:00", "meta": {"OBJECT_NAME": "HYDROGNSS-2", "OBJECT_ID": "2025-276DB", "EPOCH": "2025-12-22T00:51:46.373760", "MEAN_MOTION": 15.17416685, "ECCENTRICITY": 0.00014149, "INCLINATION": 97.4417, "RA_OF_ASC_NODE": 67.6433, "ARG_OF_PERICENTER": 245.9503, "MEAN_ANOMALY": 114.1583, "EPHEMERIS_TYPE": 0, "CLASSIFICATION_TYPE": "U", "NORAD_CAT_ID": 66763, "ELEMENT_SET_NO": 999, "REV_AT_EPOCH": 353, "BSTAR": 0.00018659315, "MEAN_MOTION_DOT": 3.664e-05, "MEAN_MOTION_DDOT": 0}, "tle": {"line1": "1 66763U 25276DB  25356.03595340  .00003664  00000+0  18659-3 0  9990", "line2": "2 66763  97.4417  67.6433 0001414 245.9503 114.1583 15.17416685  3537"}}, "geometry": {"type": "Point", "coordinates": [98.50949075344253, -75.4744556976176]}}, {"type": "Feature", "properties": {"norad_id": 66764, "name": "TRANSPORTER-15 DC", "group": "last-30-days", "lat": -53.17990842327396, "lon": 78.27060771819772, "alt_km": 520.2928862974904, "timestamp": "2025-12-22T14:45:56.097367+00:00", "meta": {"OBJECT_NAME": "TRANSPORTER-15 DC", "OBJECT_ID": "2025-276DC", "EPOCH": "2025-12-22T03:55:33.337920", "MEAN_MOTION": 15.17682564, "ECCENTRICITY": 0.00020123, "INCLINATION": 97.441, "RA_OF_ASC_NODE": 67.7727, "ARG_OF_PERICENTER": 199.7349, "MEAN_ANOMALY": 160.3807, "EPHEMERIS_TYPE": 0, "CLASSIFICATION_TYPE": "U", "NORAD_CAT_ID": 66764, "ELEMENT_SET_NO": 999, "REV_AT_EPOCH": 355, "BSTAR": 0.00029829138, "MEAN_MOTION_DOT": 5.944e-05, "MEAN_MOTION_DDOT": 0}, "tle": {"line1": "1 66764U 25276DC  25356.16358030  .00005944  00000+0  29829-3 0  9992", "line2": "2 66764  97.4410  67.7727 0002012 199.7349 160.3807 15.17682564  3552"}}, "geometry": {"type": "Point", "coordinates": [78.27060771819772, -53.17990842327396]}}, {"type": "Feature", "properties": {"norad_id": 66765, "name": "TRANSPORTER-15 DD", "group": "last-30-days", "lat": 14.55433224364404, "lon": 66.30654854604433, "alt_km": 511.00804609583156, "timestamp": "2025-12-22T14:45:56.097379+00:00", "meta": {"OBJECT_NAME": "TRANSPORTER-15 DD", "OBJECT_ID": "2025-276DD", "EPOCH": "2025-12-22T05:12:48.132000", "MEAN_MOTION": 15.18708893, "ECCENTRICITY": 0.00018268, "INCLINATION": 97.4426, "RA_OF_ASC_NODE": 67.8597, "ARG_OF_PERICENTER": 119.8218, "MEAN_ANOMALY": 240.3198, "EPHEMERIS_TYPE": 0, "CLASSIFICATION_TYPE": "U", "NORAD_CAT_ID": 66765, "ELEMENT_SET_NO": 999, "REV_AT_EPOCH": 356, "BSTAR": 0.00074468578, "MEAN_MOTION_DOT": 0.00015406, "MEAN_MOTION_DDOT": 0}, "tle": {"line1": "1 66765U 25276DD  25356.21722375  .00015406  00000+0  74469-3 0  9990", "line2": "2 66765  97.4426  67.8597 0001826 119.8218 240.3198 15.18708893  3564"}}, "geometry": {"type": "Point", "coordinates": [66.30654854604433, 14.55433224364404]}}, {"type": "Feature", "properties": {"norad_id": 66766, "name": "TRANSPORTER-15 DE", "group": "last-30-days", "lat": -0.008321347501110006, "lon": 68.22923782622397, "alt_km": 513.6669119848966, "timestamp": "2025-12-22T14:45:56.097390+00:00", "meta": {"OBJECT_NAME": "TRANSPORTER-15 DE", "OBJECT_ID": "2025-276DE", "EPOCH": "2025-12-22T03:41:39.571008", "MEAN_MOTION": 15.18400624, "ECCENTRICITY": 0.00020169, "INCLINATION": 97.4363, "RA_OF_ASC_NODE": 67.7746, "ARG_OF_PERICENTER": 89.0974, "MEAN_ANOMALY": 271.0491, "EPHEMERIS_TYPE": 0, "CLASSIFICATION_TYPE": "U", "NORAD_CAT_ID": 66766, "ELEMENT_SET_NO": 999, "REV_AT_EPOCH": 355, "BSTAR": 0.00054815347, "MEAN_MOTION_DOT": 0.00011216, "MEAN_MOTION_DDOT": 0}, "tle": {"line1": "1 66766U 25276DE  25356.15393022  .00011216  00000+0  54815-3 0  9995", "line2": "2 66766  97.4363  67.7746 0002016  89.0974 271.0491 15.18400624  3556"}}, "geometry": {"type": "Point", "coordinates": [68.22923782622397, -0.008321347501110006]}}]}